25162,GLOBALSTAR M001,1998,116.3,-1.0,-,52.0,Inactive,0,LEO,USA,Globalstar,Unknown,Unknown,Unknown,1 25162U 98008A   25110.23911860 -.00000074  00000+0  17371-3 0  9993,2 25162  52.0006 141.8869 0001670 132.2512 305.9291 12.38213053236646,12.38213053,0.000167,LEO
25163,GLOBALSTAR M004,1998,113.98,-1.0,-,52.0,Inactive,0,LEO,USA,Globalstar,Unknown,Unknown,Unknown,1 25163U 98008B   25109.78853519 -.00000058  00000+0  25518-3 0  9992,2 25163  51.9997 232.3111 0003634 154.2561   1.6284 12.63393970254300,12.6339397,0.0003634,LEO
25164,GLOBALSTAR M002,1998,123.98,-1.0,-,52.01,Inactive,0,LEO,USA,Globalstar,Unknown,Unknown,Unknown,1 25164U 98008C   25109.73233234 -.00000042  00000+0  67862-3 0  9995,2 25164  52.0050  26.7674 0001939  46.6839 313.4143 11.61509426177270,11.61509426,0.0001939,LEO
25165,GLOBALSTAR M003,1998,118.8,-1.0,-,52.0,Inactive,0,LEO,USA,Globalstar,Unknown,Unknown,Unknown,1 25165U 98008D   25109.82672234 -.00000072  00000+0  18375-3 0  9991,2 25165  52.0021 330.1563 0008074 170.8231 293.9962 12.12076599226140,12.12076599,0.0008074,LEO
25306,GLOBALSTAR M014,1998,123.55,-1.0,-,51.99,Inactive,0,LEO,USA,Globalstar,Unknown,Unknown,Unknown,1 25306U 98023A   25110.00137575 -.00000050  00000+0  51772-3 0  9995,2 25306  51.9850 310.5452 0000415 199.0721 329.8002 11.65479687184376,11.65479687,4.15e-05,LEO
25307,GLOBALSTAR M006,1998,124.33,-1.0,-,52.0,Inactive,0,LEO,USA,Globalstar,Unknown,Unknown,Unknown,1 25307U 98023B   25109.88318050 -.00000056  00000+0  41279-3 0  9996,2 25307  51.9986   1.1355 0003536  10.2277  93.4680 11.58174431210073,11.58174431,0.0003536,LEO
25308,GLOBALSTAR M015,1998,125.34,-1.0,-,51.98,Inactive,0,LEO,USA,Globalstar,Unknown,Unknown,Unknown,1 25308U 98023C   25110.19642250 -.00000066  00000+0  16191-3 0  9991,2 25308  51.9797  96.1656 0012639 332.9828 110.5100 11.48858652187784,11.48858652,0.0012639,LEO
25309,GLOBALSTAR M008,1998,116.5,-1.0,-,52.0,Inactive,0,LEO,USA,Globalstar,Unknown,Unknown,Unknown,1 25309U 98023D   25109.67880383 -.00000063  00000+0  26328-3 0  9994,2 25309  52.0000   7.6850 0003274  57.2912 319.3205 12.36066802230615,12.36066802,0.0003274,LEO
